[{"OBJECT_NAME":"STARLINK-30923","OBJECT_ID":"2023-178H","EPOCH":"2026-03-09T23:26:17.608416","MEAN_MOTION":15.30193411,"ECCENTRICITY":0.00012918,"INCLINATION":53.1616,"RA_OF_ASC_NODE":359.8171,"ARG_OF_PERICENTER":92.4141,"MEAN_ANOMALY":267.7007,"EPHEMERIS_TYPE":0,"CLASSIFICATION_TYPE":"U","NORAD_CAT_ID":58381,"ELEMENT_SET_NO":999,"REV_AT_EPOCH":12986,"BSTAR":4.711884e-5,"MEAN_MOTION_DOT":1.036e-5,"MEAN_MOTION_DDOT":0},{"OBJECT_NAME":"NUSAT-48 (HENRIETTA LEAVITT)","OBJECT_ID":"2024-149AG","EPOCH":"2026-03-09T19:19:17.269536","MEAN_MOTION":15.29812597,"ECCENTRICITY":0.00027538,"INCLINATION":97.3923,"RA_OF_ASC_NODE":150.8264,"ARG_OF_PERICENTER":263.3026,"MEAN_ANOMALY":96.7901,"EPHEMERIS_TYPE":0,"CLASSIFICATION_TYPE":"U","NORAD_CAT_ID":60498,"ELEMENT_SET_NO":999,"REV_AT_EPOCH":8694,"BSTAR":0.00045211745,"MEAN_MOTION_DOT":0.00012988,"MEAN_MOTION_DDOT":0}]
